NANOSAT 1B              
1 35685U 09041E   26068.89252635  .00002414  00000+0  23413-3 0  9999
2 35685  98.1028 184.5560 0050708 130.6650 229.8993 14.92717139899605
KUIPER-00060            
1 64520U 25134W   26068.95174384 -.00121718  00000+0 -15086-1 0  9997
2 64520  51.9012 219.5001 0000979 171.3067 188.7914 14.82970555 40272
